FENGYUN 4B              
1 48808U 21047A   21268.28080794 -.00000361  00000-0  00000-0 0  9990
2 48808   0.1863 109.2068 0000884  23.8150  96.1658  1.00269330  1261
SXM-8                   
1 48838U 21049A   21268.52757688 -.00000209  00000-0  00000+0 0  9995
2 48838   0.1089 103.1895 0002187 287.7643  78.3500  1.00272351  1323
TIANLIAN 1-05           
1 49011U 21063A   21268.22063120  .00000066  00000-0  00000-0 0  9994
2 49011   2.8315 286.0780 0003170 320.8049 207.4205  1.00274078   777
STAR ONE D2             
1 49055U 21069A   21268.18267706 -.00000269  00000-0  00000-0 0  9995
2 49055   0.0163 190.7924 0002693  16.8423 152.3679  1.00270980   607
EUTELSAT QUANTUM        
1 49056U 21069B   21268.19385148  .00000121  00000-0  00000-0 0  9994
2 49056   0.0115 181.4341 0002258  61.8933 238.3957  1.00272512   627
